{
    "week": 294,
    "satellites": [
        {
            "Name": "GSAT0226 (GALILEO 31)",
            "Line1": "1 61183U 24167B   24321.20557931 -.00000004  00000+0  00000+0 0  9996",
            "Line2": "2 61183  55.3850 237.1721 0033834  97.1093 263.3097  1.71381460  1002",
            "SatelliteNumber": "61183",
            "Classification": "U",
            "LaunchYear": "24",
            "LaunchNumber": "167",
            "PieceOfLaunch": "B",
            "EpochYear": "24",
            "EpochDay": 321.20557931,
            "FirstDerivativeMeanMotion": -4e-08,
            "SecondDerivativeMeanMotion": "00000+0",
            "BSTAR": "00000+0",
            "SetNumber": "999",
            "Inclination": 55.385,
            "RAAN": 237.1721,
            "Eccentricity": 0.0033834,
            "ArgumentOfPerigee": 97.1093,
            "MeanAnomaly": 263.3097,
            "MeanMotion": 1.7138146,
            "RevolutionNumber": "100"
        }
    ]
}